GLOBALSTAR M068         
1 32266U 07048D   25099.43911648 -.00000004  00000+0  55343-3 0  9996
2 32266  51.9866 151.8241 0000693 357.4000  16.3997 12.62820308808873
GLOBALSTAR M079         
1 37188U 10054A   25099.46945971 -.00000074  00000+0  16499-3 0  9990
2 37188  52.0066 348.9743 0000926  96.5510  75.1299 12.62272788668456
GLOBALSTAR M074         
1 37189U 10054B   25099.41685389 -.00000070  00000+0  19057-3 0  9999
2 37189  52.0046 348.4692 0000567  86.2665  84.8304 12.62273641668375
GLOBALSTAR M076         
1 37190U 10054C   25099.44265409 -.00000074  00000+0  16815-3 0  9994
2 37190  52.0058 348.5516 0000693 106.2271  64.7636 12.62260622668091
GLOBALSTAR M077         
1 37191U 10054D   25099.56030873 -.00000066  00000+0  20845-3 0  9992
2 37191  52.0079 305.0339 0000801  95.9613 308.1219 12.62273122668485
GLOBALSTAR M075         
1 37192U 10054E   25099.53526998 -.00000082  00000+0  12109-3 0  9990
2 37192  51.9972  30.5635 0000507  73.2548  97.9558 12.62263191667173
GLOBALSTAR M073         
1 37193U 10054F   25099.29827125 -.00000062  00000+0  23462-3 0  9992
2 37193  52.0065 305.0577 0000823 102.5148  69.4755 12.62270262669180
GLOBALSTAR M083         
1 37739U 11033A   25099.60780240 -.00000077  00000+0  14946-3 0  9990
2 37739  51.9851 252.9371 0000890 102.2756 337.9600 12.62262635638199
GLOBALSTAR M088         
1 37740U 11033B   25099.51483594 -.00000078  00000+0  14355-3 0  9999
2 37740  51.9716 158.7687 0000421 112.4879  25.9348 12.62265158634016
GLOBALSTAR M091         
1 37741U 11033C   25099.44991935 -.00000075  00000+0  16259-3 0  9997
2 37741  51.9976 122.3989 0000522  84.1372  58.3299 12.62266907634504
GLOBALSTAR M085         
1 37742U 11033D   25099.35954406 -.00000090  00000+0  79625-4 0  9994
2 37742  51.9862  73.7705 0000581  73.2945  78.4674 12.62267124635002
GLOBALSTAR M081         
1 37743U 11033E   25099.30405869 -.00000090  00000+0  75747-4 0  9995
2 37743  51.9953  76.6841 0000502  94.9309  44.4881 12.62262597635141
GLOBALSTAR M089         
1 37744U 11033F   25099.26991422 -.00000092  00000+0  66836-4 0  9997
2 37744  51.9957  31.0292 0000326  86.3325  78.2647 12.62268324636238
GLOBALSTAR M084         
1 38040U 11080A   25099.83458994 -.00000093  00000+0  60044-4 0  9990
2 38040  52.0001 256.5639 0000558 129.2291  22.1817 12.62264749614314
GLOBALSTAR M080         
1 38041U 11080B   25099.54379022 -.00000095  00000+0  50879-4 0  9990
2 38041  52.0054 259.0321 0000816 141.0299 248.3089 12.62291708614123
GLOBALSTAR M082         
1 38042U 11080C   25099.63263424 -.00000106  00000+0 -11762-4 0  9991
2 38042  52.0068 214.1992 0000816  86.0626 287.5186 12.62264949614846
GLOBALSTAR M092         
1 38043U 11080D   25099.32395963 -.00000053  00000+0  28180-3 0  9993
2 38043  52.0090 305.5129 0000728  91.9257  78.8022 12.62262438613251
GLOBALSTAR M090         
1 38044U 11080E   25099.57970714 -.00000105  00000+0 -58965-5 0  9999
2 38044  51.9880 208.2575 0000720 106.2579 266.3411 12.62268895614957
GLOBALSTAR M086         
1 38045U 11080F   25099.62633065 -.00000105  00000+0 -96255-5 0  9995
2 38045  51.9893 208.6610 0001381 148.1551 316.8244 12.62269040614908
GLOBALSTAR M097         
1 39072U 13005A   25099.47146001 -.00000080  00000+0  13494-3 0  9990
2 39072  52.0022 123.6091 0000517 111.5083 248.5839 12.62271654562130
GLOBALSTAR M093         
1 39073U 13005B   25099.76149781 -.00000076  00000+0  15308-3 0  9992
2 39073  51.9787 116.1360 0000461 103.7252 256.3666 12.62263573562240
GLOBALSTAR M094         
1 39074U 13005C   25099.84086064 -.00000099  00000+0  25829-4 0  9991
2 39074  51.9984  30.2080 0000823  88.2250 271.8711 12.62269520563761
GLOBALSTAR M096         
1 39075U 13005D   25099.45820455 -.00000091  00000+0  68872-4 0  9996
2 39075  52.0065  79.8339 0000650  82.1517 277.9423 12.62270059562616
GLOBALSTAR M078         
1 39076U 13005E   25099.43134869  .00000024  00000+0  71546-3 0  9998
2 39076  51.9859 164.5196 0001042  53.0517 307.0445 12.62261314561232
GLOBALSTAR M095         
1 39077U 13005F   25099.53719184 -.00000076  00000+0  15275-3 0  9994
2 39077  51.9784 161.4299 0000821  87.0603 273.0358 12.62268807561102
GLOBALSTAR M087         
1 52888U 22064A   25099.80538287 -.00000066  00000+0  20846-3 0  9996
2 52888  51.9796 302.0171 0000944  90.4968 269.6006 12.62270703136736
